FM-5                    
1 35493U 09034A   26193.90237249 -.00000201  00000+0  00000+0 0  9999
2 35493   0.0416 268.2075 0000669  72.2071 189.0649  1.00271288 46902
TERRESTAR-1             
1 35496U 09035A   26194.09583291 -.00000062  00000+0  00000+0 0  9990
2 35496   5.1981  48.7741 0002523  55.0331 110.6740  1.00270891 62390
COSMOS 2451             
1 35498U 09036A   26194.13499073 -.00000017  00000+0 -19661-3 0  9990
2 35498  82.4876  76.2608 0006871 145.6882 214.4641 12.40870514770863
COSMOS 2453             
1 35500U 09036C   26194.17682885 -.00000024  00000+0 -25002-3 0  9997
2 35500  82.4877  71.7571 0007735 104.9881 255.2054 12.41519545771209
DEIMOS-1                
1 35681U 09041A   26194.16388177  .00000093  00000+0  20848-4 0  9997
2 35681  97.7426 350.2695 0002758  95.2510 264.9014 14.75262332910713
DUBAISAT-1              
1 35682U 09041B   26193.93265000  .00000422  00000+0  70006-4 0  9998
2 35682  98.0080 326.9130 0010085 356.0422   4.0705 14.75164754908895
UK-DMC 2                
1 35683U 09041C   26194.18887244  .00000023  00000+0  10532-4 0  9992
2 35683  97.8860 328.5245 0001534  99.4390 260.6993 14.76090902910408
APRIZESAT 4             
1 35684U 09041D   26193.74598681  .00000345  00000+0  48023-4 0  9991
2 35684  98.1404 269.5751 0042095 237.6607 122.0528 14.83911924915153
NANOSAT 1B              
1 35685U 09041E   26194.15758882  .00001061  00000+0  10514-3 0  9998
2 35685  98.1192 313.6688 0050602  79.4270 281.2643 14.93162501918293
APRIZESAT 3             
1 35686U 09041F   26193.91201242  .00001071  00000+0  97248-4 0  9996
2 35686  98.2094 348.3734 0060928 343.4705  16.4527 14.96306654920229
ASIASAT 5               
1 35696U 09042A   26194.06919741 -.00000309  00000+0  00000+0 0  9994
2 35696   0.0065 306.4553 0001643 137.5788 332.3294  1.00273684 61960
NAVSTAR 64 (USA 206)    
1 35752U 09043A   26193.30253226 -.00000057  00000+0  00000+0 0  9993
2 35752  56.2260  26.4662 0053745  84.2562  95.9378  2.00552847123866
JCSAT-12 (JCSAT-RA)     
1 35755U 09044A   26194.01681654 -.00000329  00000+0  00000+0 0  9998
2 35755   0.0359 286.8877 0000672 290.6600 211.4549  1.00270067 61868
OPTUS D3                
1 35756U 09044B   26193.95034191 -.00000147  00000+0  00000+0 0  9997
2 35756   0.8917 268.2973 0002924 204.5770 316.2131  1.00268614 61824
NIMIQ 5                 
1 35873U 09050A   26194.11887329 -.00000259  00000+0  00000+0 0  9996
2 35873   0.0504 253.8921 0002522 213.4664 153.7334  1.00271386 61601
OCEANSAT-2              
1 35931U 09051A   26194.22047994 -.00000122  00000+0 -58093-4 0  9990
2 35931  98.2319 178.4728 0017220 159.1880 200.9991 13.99656274882972
SWISSCUBE               
1 35932U 09051B   26193.20904170  .00000502  00000+0  10865-3 0  9990
2 35932  98.4012 101.5313 0007715 127.0520 233.1388 14.62527427892815
BEESAT-1                
1 35933U 09051C   26193.71071439  .00000393  00000+0  88659-4 0  9995
2 35933  98.3939 101.6234 0005984 136.3628 223.8047 14.61759519892911
ITUPSAT1                
1 35935U 09051E   26192.97035851  .00000388  00000+0  90106-4 0  9996
2 35935  98.4023 100.0372 0007861 152.4089 207.7529 14.60475983892353
AMAZONAS 2              
1 35942U 09054A   26194.11422208 -.00000263  00000+0  00000+0 0  9993
2 35942   1.8801  82.7166 0003127  31.3210 146.0842  1.00270533 61447
COMSATBW-1              
1 35943U 09054B   26194.14576727  .00000023  00000+0  00000+0 0  9996
2 35943   0.0626 182.1086 0002604 290.9186 293.5046  1.00269266 61562
WORLDVIEW-2 (WV-2)      
1 35946U 09055A   26194.18891992  .00000038  00000+0  27027-4 0  9997
2 35946  98.4757 267.2845 0005230 134.7292 225.4322 14.37906609879381
DMSP 5D-3 F18 (USA 210) 
1 35951U 09057A   26194.16444062  .00000161  00000+0  10636-3 0  9999
2 35951  98.9055 174.8792 0011107 171.1585 188.9786 14.14910810863268
NSS-12                  
1 36032U 09058A   26193.85937535  .00000071  00000+0  00000+0 0  9998
2 36032   0.0418 288.7652 0004360 147.9254 220.4052  1.00268485 61176
THOR 6                  
1 36033U 09058B   26194.13311389  .00000000  00000+0  00000+0 0  9996
2 36033   0.0128  53.3817 0001546  59.4564 225.2613  1.00269840 61260
SMOS                    
1 36036U 09059A   26193.97248845  .00000156  00000+0  63538-4 0  9999
2 36036  98.4426  20.9295 0001137  95.9522 264.1796 14.39735328877163
PROBA-2                 
1 36037U 09059B   26193.96246225  .00000091  00000+0  31709-4 0  9992
2 36037  98.2458  16.9589 0012848 195.7645 164.3153 14.54873144885279
POISK                   
1 36086U 09060A   26194.12129675  .00004316  00000+0  86456-4 0  9999
2 36086  51.6304 171.7447 0006685 289.3803  70.6462 15.48996109593175
SJ-11-01                
1 36088U 09061A   26194.23730535  .00000299  00000+0  66311-4 0  9991
2 36088  98.0060 174.4860 0009757 306.7866 110.5301 14.63710368888301
COSMOS 2455             
1 36095U 09063A   26193.98952508 -.00000033  00000+0  30522-4 0  9990
2 36095  67.1458 190.1480 0003564 281.2126  78.8558 13.97052949848739
INTELSAT 14 (IS-14)     
1 36097U 09064A   26194.12436051 -.00000276  00000+0  00000+0 0  9992
2 36097   0.0155  42.2389 0002221  77.1990 171.3472  1.00270601 60868
